start=new Date('2023-04-22T00:00:00.000Z').valueOf();
sats=[{"OBJECT_ID":"2020-073C","TLE_LINE2":"2 46672  53.0525 289.2699 0001117  81.9547 278.1568 15.06408473138407","PERIAPSIS":"546.414","OBJECT_NAME":"STARLINK-1716","OBJECT_TYPE":"PAYLOAD","MEAN_ELEMENT_THEORY":"SGP4","DECAY_DATE":null,"EPHEMERIS_TYPE":"0","REV_AT_EPOCH":"13840","LAUNCH_DATE":"2020-10-18","CENTER_NAME":"EARTH","MEAN_MOTION_DOT":"0.00026064","PERIOD":"95.592","RCS_SIZE":"LARGE","CLASSIFICATION_TYPE":"U","TLE_LINE1":"1 46672U 20073C   23111.56623831  .00026064  00000-0  17618-2 0  9992","GP_ID":"230526056","COUNTRY_CODE":"US","SEMIMAJOR_AXIS":"6925.323","ECCENTRICITY":"0.00011170","INCLINATION":"53.0525","ARG_OF_PERICENTER":"81.9547","APOAPSIS":"547.961","FILE":"3891716","MEAN_MOTION_DDOT":"0.0000000000000","TIME_SYSTEM":"UTC","MEAN_MOTION":"15.06408473","REF_FRAME":"TEME","SITE":"AFETR","NORAD_CAT_ID":"46672","EPOCH":"2023-04-21T13:35:22.989984","ELEMENT_SET_NO":"999","BSTAR":"0.00176180000000","RA_OF_ASC_NODE":"289.2699","MEAN_ANOMALY":"278.1568"},{"PERIAPSIS":"546.847","TLE_LINE2":"2 46673  53.0535 303.2865 0000544  47.0719 313.0315 15.06396746138226","OBJECT_ID":"2020-073D","REV_AT_EPOCH":"13822","EPHEMERIS_TYPE":"0","MEAN_ELEMENT_THEORY":"SGP4","DECAY_DATE":null,"OBJECT_NAME":"STARLINK-1717","OBJECT_TYPE":"PAYLOAD","RCS_SIZE":"LARGE","MEAN_MOTION_DOT":"0.00014777","PERIOD":"95.592","CENTER_NAME":"EARTH","LAUNCH_DATE":"2020-10-18","ARG_OF_PERICENTER":"47.0719","ECCENTRICITY":"0.00005440","INCLINATION":"53.0535","GP_ID":"230524811","TLE_LINE1":"1 46673U 20073D   23111.81367287  .00014777  00000-0  10089-2 0  9994","COUNTRY_CODE":"US","SEMIMAJOR_AXIS":"6925.359","CLASSIFICATION_TYPE":"U","TIME_SYSTEM":"UTC","MEAN_MOTION_DDOT":"0.0000000000000","APOAPSIS":"547.600","FILE":"3891716","MEAN_MOTION":"15.06396746","ELEMENT_SET_NO":"999","BSTAR":"0.00100890000000","NORAD_CAT_ID":"46673","EPOCH":"2023-04-21T19:31:41.335968","REF_FRAME":"TEME","SITE":"AFETR","MEAN_ANOMALY":"313.0315","RA_OF_ASC_NODE":"303.2865"},{"PERIOD":"95.592","MEAN_MOTION_DOT":"0.00025936","LAUNCH_DATE":"2020-10-18","CENTER_NAME":"EARTH","RCS_SIZE":"LARGE","COUNTRY_CODE":"US","TLE_LINE1":"1 46674U 20073E   23111.85742642  .00025936  00000-0  17532-2 0  9990","GP_ID":"230524556","SEMIMAJOR_AXIS":"6925.318","CLASSIFICATION_TYPE":"U","INCLINATION":"53.0534","ECCENTRICITY":"0.00008780","ARG_OF_PERICENTER":"94.0568","OBJECT_ID":"2020-073E","PERIAPSIS":"546.575","TLE_LINE2":"2 46674  53.0534 287.9679 0000878  94.0568 266.0521 15.06409870138444","DECAY_DATE":null,"MEAN_ELEMENT_THEORY":"SGP4","OBJECT_TYPE":"PAYLOAD","OBJECT_NAME":"STARLINK-1718","REV_AT_EPOCH":"13844","EPHEMERIS_TYPE":"0","REF_FRAME":"TEME","SITE":"AFETR","ELEMENT_SET_NO":"999","BSTAR":"0.00175320000000","NORAD_CAT_ID":"46674","EPOCH":"2023-04-21T20:34:41.642688","RA_OF_ASC_NODE":"287.9679","MEAN_ANOMALY":"266.0521","MEAN_MOTION_DDOT":"0.0000000000000","APOAPSIS":"547.791","FILE":"3891716","TIME_SYSTEM":"UTC","MEAN_MOTION":"15.06409870"},{"MEAN_MOTION":"15.06428448","MEAN_MOTION_DDOT":"0.0000000000000","FILE":"3891716","APOAPSIS":"547.789","TIME_SYSTEM":"UTC","RA_OF_ASC_NODE":"287.9813","MEAN_ANOMALY":"281.6635","SITE":"AFETR","REF_FRAME":"TEME","BSTAR":"0.00150970000000","ELEMENT_SET_NO":"999","EPOCH":"2023-04-21T20:29:21.939360","NORAD_CAT_ID":"46675","DECAY_DATE":null,"MEAN_ELEMENT_THEORY":"SGP4","OBJECT_TYPE":"PAYLOAD","OBJECT_NAME":"STARLINK-1720","REV_AT_EPOCH":"13844","EPHEMERIS_TYPE":"0","OBJECT_ID":"2020-073F","PERIAPSIS":"546.464","TLE_LINE2":"2 46675  53.0541 287.9813 0000957  78.4461 281.6635 15.06428448138440","TLE_LINE1":"1 46675U 20073F   23111.85372615  .00022294  00000-0  15097-2 0  9998","GP_ID":"230525304","COUNTRY_CODE":"US","SEMIMAJOR_AXIS":"6925.261","CLASSIFICATION_TYPE":"U","INCLINATION":"53.0541","ECCENTRICITY":"0.00009570","ARG_OF_PERICENTER":"78.4461","PERIOD":"95.590","MEAN_MOTION_DOT":"0.00022294","CENTER_NAME":"EARTH","LAUNCH_DATE":"2020-10-18","RCS_SIZE":"LARGE"},{"SITE":"AFETR","REF_FRAME":"TEME","EPOCH":"2023-04-21T18:48:32.375520","NORAD_CAT_ID":"46677","BSTAR":"0.00079423000000","ELEMENT_SET_NO":"999","RA_OF_ASC_NODE":"288.2961","MEAN_ANOMALY":"251.5825","FILE":"3891716","APOAPSIS":"548.099","MEAN_MOTION_DDOT":"0.0000000000000","TIME_SYSTEM":"UTC","MEAN_MOTION":"15.06370364","CENTER_NAME":"EARTH","LAUNCH_DATE":"2020-10-18","PERIOD":"95.594","MEAN_MOTION_DOT":"0.00011559","RCS_SIZE":"LARGE","CLASSIFICATION_TYPE":"U","GP_ID":"230525556","TLE_LINE1":"1 46677U 20073H   23111.78370805  .00011559  00000-0  79423-3 0  9997","COUNTRY_CODE":"US","SEMIMAJOR_AXIS":"6925.439","INCLINATION":"53.0541","ECCENTRICITY":"0.00011480","ARG_OF_PERICENTER":"108.5289","OBJECT_ID":"2020-073H","TLE_LINE2":"2 46677  53.0541 288.2961 0001148 108.5289 251.5825 15.06370364138435","PERIAPSIS":"546.509","OBJECT_TYPE":"PAYLOAD","OBJECT_NAME":"STARLINK-1766","MEAN_ELEMENT_THEORY":"SGP4","DECAY_DATE":null,"EPHEMERIS_TYPE":"0","REV_AT_EPOCH":"13843"},{"MEAN_MOTION":"15.06405422","TIME_SYSTEM":"UTC","APOAPSIS":"547.965","FILE":"3891716","MEAN_MOTION_DDOT":"0.0000000000000","MEAN_ANOMALY":"291.5041","RA_OF_ASC_NODE":"268.5699","NORAD_CAT_ID":"46679","EPOCH":"2023-04-21T17:20:57.732288","ELEMENT_SET_NO":"999","BSTAR":"0.00170930000000","REF_FRAME":"TEME","SITE":"AFETR","EPHEMERIS_TYPE":"0","REV_AT_EPOCH":"13870","OBJECT_NAME":"STARLINK-1773","OBJECT_TYPE":"PAYLOAD","MEAN_ELEMENT_THEORY":"SGP4","DECAY_DATE":null,"TLE_LINE2":"2 46679  53.0541 268.5699 0001109  68.6066 291.5041 15.06405422138700","PERIAPSIS":"546.429","OBJECT_ID":"2020-073K","INCLINATION":"53.0541","ECCENTRICITY":"0.00011090","ARG_OF_PERICENTER":"68.6066","CLASSIFICATION_TYPE":"U","TLE_LINE1":"1 46679U 20073K   23111.72289042  .00025274  00000-0  17093-2 0  9998","GP_ID":"230524311","COUNTRY_CODE":"US","SEMIMAJOR_AXIS":"6925.332","RCS_SIZE":"LARGE","LAUNCH_DATE":"2020-10-18","CENTER_NAME":"EARTH","PERIOD":"95.592","MEAN_MOTION_DOT":"0.00025274"},{"SITE":"AFETR","REF_FRAME":"TEME","EPOCH":"2023-04-21T18:59:49.302240","NORAD_CAT_ID":"46680","BSTAR":"0.00112050000000","ELEMENT_SET_NO":"999","RA_OF_ASC_NODE":"303.2597","MEAN_ANOMALY":"278.2263","FILE":"3891716","APOAPSIS":"547.877","MEAN_MOTION_DDOT":"0.0000000000000","TIME_SYSTEM":"UTC","MEAN_MOTION":"15.06401054","LAUNCH_DATE":"2020-10-18","CENTER_NAME":"EARTH","MEAN_MOTION_DOT":"0.00016448","PERIOD":"95.592","RCS_SIZE":"LARGE","CLASSIFICATION_TYPE":"U","TLE_LINE1":"1 46680U 20073L   23111.79154285  .00016448  00000-0  11205-2 0  9999","COUNTRY_CODE":"US","GP_ID":"230525055","SEMIMAJOR_AXIS":"6925.345","ECCENTRICITY":"0.00009620","INCLINATION":"53.0530","ARG_OF_PERICENTER":"81.8835","OBJECT_ID":"2020-073L","TLE_LINE2":"2 46680  53.0530 303.2597 0000962  81.8835 278.2263 15.06401054138223","PERIAPSIS":"546.544","OBJECT_NAME":"STARLINK-1774","OBJECT_TYPE":"PAYLOAD","DECAY_DATE":null,"MEAN_ELEMENT_THEORY":"SGP4","EPHEMERIS_TYPE":"0","REV_AT_EPOCH":"13822"},{"TLE_LINE1":"1 46681U 20073M   23111.89472188  .00024675  00000-0  16697-2 0  9997","GP_ID":"230525805","COUNTRY_CODE":"US","SEMIMAJOR_AXIS":"6925.355","CLASSIFICATION_TYPE":"U","ECCENTRICITY":"0.00010200","INCLINATION":"53.0533","ARG_OF_PERICENTER":"91.3112","MEAN_MOTION_DOT":"0.00024675","PERIOD":"95.592","LAUNCH_DATE":"2020-10-18","CENTER_NAME":"EARTH","RCS_SIZE":"LARGE","MEAN_ELEMENT_THEORY":"SGP4","DECAY_DATE":null,"OBJECT_NAME":"STARLINK-1775","OBJECT_TYPE":"PAYLOAD","REV_AT_EPOCH":"13823","EPHEMERIS_TYPE":"0","OBJECT_ID":"2020-073M","PERIAPSIS":"546.514","TLE_LINE2":"2 46681  53.0533 302.7960 0001020  91.3112 268.7993 15.06397860138239","RA_OF_ASC_NODE":"302.7960","MEAN_ANOMALY":"268.7993","SITE":"AFETR","REF_FRAME":"TEME","BSTAR":"0.00166970000000","ELEMENT_SET_NO":"999","EPOCH":"2023-04-21T21:28:23.970432","NORAD_CAT_ID":"46681","MEAN_MOTION":"15.06397860","MEAN_MOTION_DDOT":"0.0000000000000","FILE":"3891716","APOAPSIS":"547.927","TIME_SYSTEM":"UTC"},{"MEAN_MOTION_DDOT":"0.0000000000000","FILE":"3891716","APOAPSIS":"547.998","TIME_SYSTEM":"UTC","MEAN_MOTION":"15.06359264","SITE":"AFETR","REF_FRAME":"TEME","BSTAR":"0.00142080000000","ELEMENT_SET_NO":"999","EPOCH":"2023-04-21T18:54:30.450816","NORAD_CAT_ID":"46682","RA_OF_ASC_NODE":"303.2746","MEAN_ANOMALY":"286.1731","OBJECT_ID":"2020-073N","PERIAPSIS":"546.679","TLE_LINE2":"2 46682  53.0519 303.2746 0000952  73.9363 286.1731 15.06359264138228","MEAN_ELEMENT_THEORY":"SGP4","DECAY_DATE":null,"OBJECT_TYPE":"PAYLOAD","OBJECT_NAME":"STARLINK-1776","REV_AT_EPOCH":"13822","EPHEMERIS_TYPE":"0","PERIOD":"95.595","MEAN_MOTION_DOT":"0.00020921","LAUNCH_DATE":"2020-10-18","CENTER_NAME":"EARTH","RCS_SIZE":"LARGE","TLE_LINE1":"1 46682U 20073N   23111.78785244  .00020921  00000-0  14208-2 0  9992","SEMIMAJOR_AXIS":"6925.473","GP_ID":"230526057","COUNTRY_CODE":"US","CLASSIFICATION_TYPE":"U","ARG_OF_PERICENTER":"73.9363","ECCENTRICITY":"0.00009520","INCLINATION":"53.0519"},{"DECAY_DATE":null,"MEAN_ELEMENT_THEORY":"SGP4","OBJECT_NAME":"STARLINK-1780","OBJECT_TYPE":"PAYLOAD","REV_AT_EPOCH":"13830","EPHEMERIS_TYPE":"0","OBJECT_ID":"2020-073Q","PERIAPSIS":"546.341","TLE_LINE2":"2 46684  53.0538 292.2008 0001567  87.7363 272.3805 15.06330534138302","TLE_LINE1":"1 46684U 20073Q   23110.91378768  .00024662  00000-0  16719-2 0  9992","COUNTRY_CODE":"US","GP_ID":"230493913","SEMIMAJOR_AXIS":"6925.561","CLASSIFICATION_TYPE":"U","INCLINATION":"53.0538","ECCENTRICITY":"0.00015670","ARG_OF_PERICENTER":"87.7363","MEAN_MOTION_DOT":"0.00024662","PERIOD":"95.597","CENTER_NAME":"EARTH","LAUNCH_DATE":"2020-10-18","RCS_SIZE":"LARGE","MEAN_MOTION":"15.06330534","MEAN_MOTION_DDOT":"0.0000000000000","APOAPSIS":"548.512","FILE":"3891529","TIME_SYSTEM":"UTC","RA_OF_ASC_NODE":"292.2008","MEAN_ANOMALY":"272.3805","REF_FRAME":"TEME","SITE":"AFETR","ELEMENT_SET_NO":"999","BSTAR":"0.00167190000000","NORAD_CAT_ID":"46684","EPOCH":"2023-04-20T21:55:51.255552"}];
